OBJECT_NAME,OBJECT_ID,EPOCH,MEAN_MOTION,ECCENTRICITY,INCLINATION,RA_OF_ASC_NODE,ARG_OF_PERICENTER,MEAN_ANOMALY,EPHEMERIS_TYPE,CLASSIFICATION_TYPE,NORAD_CAT_ID,ELEMENT_SET_NO,REV_AT_EPOCH,BSTAR,MEAN_MOTION_DOT,MEAN_MOTION_DDOT
GAOFEN-11 01,2018-063A,2026-06-11T06:05:29.679936,15.55120009,.00037602,97.1297,229.1508,20.4986,339.6420,0,U,43585,999,43942,.23987829E-3,.16068E-3,0
ICESAT-2,2018-070A,2026-06-11T04:42:44.673696,15.28310236,.000545,92.0067,289.3613,113.5083,246.6740,0,U,43613,999,43154,.28923794E-3,.7976E-4,0
HYSIS,2018-096A,2026-06-11T07:46:54.629760,14.78682535,.00017794,97.9840,229.1180,111.4489,248.6912,0,U,43719,999,40655,.7845197E-4,.523E-5,0
KAZSTSAT,2018-099AB,2026-06-11T00:38:05.232480,14.99848310,.00081016,97.4264,194.2351,85.7606,274.4544,0,U,43783,999,41038,.99561451E-4,.1178E-4,0
SAUDISAT 5A,2018-102A,2026-06-11T06:30:17.715168,15.27985441,.00106247,97.3075,223.9659,147.4232,212.7666,0,U,43831,999,41477,.16990682E-3,.4572E-4,0
SAUDISAT 5B,2018-102C,2026-06-11T06:58:52.242816,15.28245557,.00112747,97.3182,227.0443,149.9104,210.2786,0,U,43833,999,41489,.16159692E-3,.438E-4,0
GAOFEN-10R,2019-066A,2026-06-11T06:48:53.972064,14.83047555,.00062873,98.0496,115.8202,143.6915,216.4725,0,U,44622,999,36150,.12268992E-3,.943E-5,0
CARTOSAT-3,2019-081A,2026-06-11T05:30:38.512224,15.19240318,.00126788,97.4311,224.1918,168.0476,192.1062,0,U,44804,999,36256,.15870673E-3,.3282E-4,0
GAOFEN-12 01,2019-082A,2026-06-11T06:24:41.633856,14.80453567,.00024249,97.8107,168.8029,77.0897,283.0586,0,U,44819,999,35321,.49375518E-4,.327E-5,0
CSG-1,2019-092A,2026-06-11T07:30:37.783584,14.82159972,.00014419,97.8887,346.0006,91.0487,269.0891,0,U,44873,999,35060,.50257083E-4,.348E-5,0
NEMO-HD,2020-061F,2026-06-11T05:37:11.544096,15.44473862,.00024738,97.1928,224.2472,87.5008,272.6524,0,U,46277,999,32106,.20280525E-3,.9307E-4,0
SENTINEL-6A,2020-086A,2026-06-11T05:30:53.753184,12.80929887,.00079451,66.0388,147.4259,270.2450,89.7655,0,U,46984,999,25956,.12545002E-3,-.32E-6,0
CAS500-1,2021-022A,2026-06-11T06:29:30.181344,15.20137852,.00042552,97.3913,57.6435,329.8567,30.2423,0,U,47932,999,28986,.25710622E-3,.5493E-4,0
GAOFEN-12 02,2021-026A,2026-06-11T06:39:42.379776,14.80291491,.00033853,97.9920,160.4824,247.7275,112.3578,0,U,48079,999,28088,.4737781E-4,.308E-5,0
PLEIADES NEO 3,2021-034A,2026-06-11T07:26:49.288416,14.81676106,.00014251,97.8928,237.1614,91.3849,268.7527,0,U,48268,999,27678,.17445626E-3,.1321E-4,0
PLEIADES NEO 4,2021-073E,2026-06-11T06:38:12.496128,14.81675589,.00013734,97.8932,237.1236,86.3408,273.7962,0,U,49070,999,26049,.60342613E-4,.423E-5,0
LANDSAT 9,2021-088A,2026-06-11T03:41:06.098784,14.57106400,.00014493,98.2279,232.4037,87.9040,272.2325,0,U,49260,999,25012,.6452873E-4,.245E-5,0
CSG-2,2022-008A,2026-06-11T06:42:00.973152,14.82153251,.0001458,97.8891,345.9628,85.2462,274.8917,0,U,51444,999,23571,.88072411E-4,.649E-5,0
GAOFEN-12 03,2022-069A,2026-06-11T05:43:53.615136,14.80024214,.00017904,97.8289,50.2586,107.5078,252.6330,0,U,52912,999,21373,.90822074E-4,.637E-5,0
SWOT,2022-173A,2026-06-11T04:48:39.334464,14.00168824,.00002429,77.6110,43.3922,96.1156,264.0024,0,U,54754,999,17831,.68155833E-4,.98E-6,0
GAOFEN-12 04,2023-123A,2026-06-11T07:46:22.922688,14.80217259,.00017997,97.9126,80.4258,85.6591,274.4826,0,U,57654,999,15176,.11437804E-3,.818E-5,0
PARS 1,2024-039Q,2026-06-11T07:03:02.172096,15.45601517,.00111277,97.4816,143.0282,129.1138,231.1102,0,U,59065,999,12773,.19448063E-3,.9286E-4,0
RESURS-P 4,2024-061A,2026-06-11T07:40:31.773216,15.32097231,.00017172,97.2747,110.3208,131.3414,228.7976,0,U,59371,999,12286,.82765612E-4,.2489E-4,0
LEGION 1,2024-081A,2026-06-11T05:21:17.778816,15.16625321,.00100773,97.5019,240.1437,37.4650,322.7284,0,U,59625,999,11663,.1773647E-3,.3404E-4,0
LEGION 2,2024-081B,2026-06-11T06:04:20.950464,15.16604142,.00113412,97.5019,240.2709,4.9228,355.2114,0,U,59626,999,11664,.14854382E-3,.2838E-4,0
ALOS-4 (DAICHI-4),2024-123A,2026-06-11T06:35:12.787584,14.79474727,.00016313,97.9242,259.5311,97.0648,263.0749,0,U,60182,999,10500,.16800342E-3,.1204E-4,0
LEGION 3,2024-146A,2026-06-11T04:48:44.636832,15.15994378,.00070685,45.0019,62.6609,133.1975,226.9495,0,U,60452,999,10111,.19821899E-3,.361E-4,0
LEGION 4,2024-146B,2026-06-11T06:28:01.022592,15.15987589,.00141089,45.0002,154.2022,277.5481,82.3795,0,U,60453,999,9997,.13875216E-3,.2449E-4,0
SENTINEL-2C,2024-157A,2026-06-11T05:29:01.261248,14.30816174,.00011164,98.5691,237.0946,80.0282,280.1027,0,U,60989,999,9213,.43691019E-4,.71E-6,0
IONOSFERA-M 1,2024-199A,2026-06-11T05:11:09.801888,14.22753159,.0001777,98.7181,35.4512,118.1943,241.9414,0,U,61735,999,12685,.39056553E-4,.44E-6,0
