GAOFEN-11 01            
1 43585U 18063A   26162.25381574  .00016068  00000+0  23988-3 0  9998
2 43585  97.1297 229.1508 0003760  20.4986 339.6420 15.55120009439421
ICESAT-2                
1 43613U 18070A   26162.19635039  .00007976  00000+0  28924-3 0  9992
2 43613  92.0067 289.3613 0005450 113.5083 246.6740 15.28310236431547
HYSIS                   
1 43719U 18096A   26162.32424340  .00000523  00000+0  78452-4 0  9996
2 43719  97.9840 229.1180 0001779 111.4489 248.6912 14.78682535406559
KAZSTSAT                
1 43783U 18099AB  26162.02644945  .00001178  00000+0  99561-4 0  9993
2 43783  97.4264 194.2351 0008101  85.7606 274.4544 14.99848310410389
SAUDISAT 5A             
1 43831U 18102A   26162.27103837  .00004572  00000+0  16991-3 0  9995
2 43831  97.3075 223.9659 0010624 147.4232 212.7666 15.27985441414773
SAUDISAT 5B             
1 43833U 18102C   26162.29088244  .00004380  00000+0  16160-3 0  9998
2 43833  97.3182 227.0443 0011274 149.9104 210.2786 15.28245557414894
GAOFEN-10R              
1 44622U 19066A   26162.28395801  .00000943  00000+0  12269-3 0  9991
2 44622  98.0496 115.8202 0006287 143.6915 216.4725 14.83047555361501
CARTOSAT-3              
1 44804U 19081A   26162.22961241  .00003282  00000+0  15871-3 0  9992
2 44804  97.4311 224.1918 0012678 168.0476 192.1062 15.19240318362567
GAOFEN-12 01            
1 44819U 19082A   26162.26714854  .00000327  00000+0  49376-4 0  9994
2 44819  97.8107 168.8029 0002424  77.0897 283.0586 14.80453567353213
CSG-1                   
1 44873U 19092A   26162.31293731  .00000348  00000+0  50257-4 0  9990
2 44873  97.8887 346.0006 0001441  91.0487 269.0891 14.82159972350600
NEMO-HD                 
1 46277U 20061F   26162.23416139  .00009307  00000+0  20281-3 0  9995
2 46277  97.1928 224.2472 0002473  87.5008 272.6524 15.44473862321065
SENTINEL-6A             
1 46984U 20086A   26162.22978881 -.00000032  00000+0  12545-3 0  9994
2 46984  66.0388 147.4259 0007945 270.2450  89.7655 12.80929887259562
CAS500-1                
1 47932U 21022A   26162.27048821  .00005493  00000+0  25711-3 0  9990
2 47932  97.3913  57.6435 0004255 329.8567  30.2423 15.20137852289866
GAOFEN-12 02            
1 48079U 21026A   26162.27757384  .00000308  00000+0  47378-4 0  9992
2 48079  97.9920 160.4824 0003385 247.7275 112.3578 14.80291491280886
PLEIADES NEO 3          
1 48268U 21034A   26162.31029269  .00001321  00000+0  17446-3 0  9998
2 48268  97.8928 237.1614 0001425  91.3849 268.7527 14.81676106276780
PLEIADES NEO 4          
1 49070U 21073E   26162.27653352  .00000423  00000+0  60343-4 0  9991
2 49070  97.8932 237.1236 0001373  86.3408 273.7962 14.81675589260498
LANDSAT 9               
1 49260U 21088A   26162.15354281  .00000245  00000+0  64529-4 0  9996
2 49260  98.2279 232.4037 0001449  87.9040 272.2325 14.57106400250128
CSG-2                   
1 51444U 22008A   26162.27917793  .00000649  00000+0  88072-4 0  9999
2 51444  97.8891 345.9628 0001458  85.2462 274.8917 14.82153251235712
GAOFEN-12 03            
1 52912U 22069A   26162.23881499  .00000637  00000+0  90822-4 0  9999
2 52912  97.8289  50.2586 0001790 107.5078 252.6330 14.80024214213738
SWOT                    
1 54754U 22173A   26162.20045526  .00000098  00000+0  68156-4 0  9997
2 54754  77.6110  43.3922 0000242  96.1156 264.0024 14.00168824178310
GAOFEN-12 04            
1 57654U 23123A   26162.32387642  .00000818  00000+0  11438-3 0  9996
2 57654  97.9126  80.4258 0001799  85.6591 274.4826 14.80217259151762
PARS 1                  
1 59065U 24039Q   26162.29377514  .00009286  00000+0  19448-3 0  9991
2 59065  97.4816 143.0282 0011127 129.1138 231.1102 15.45601517127734
RESURS-P 4              
1 59371U 24061A   26162.31981219  .00002489  00000+0  82766-4 0  9994
2 59371  97.2747 110.3208 0001717 131.3414 228.7976 15.32097231122864
LEGION 1                
1 59625U 24081A   26162.22312244  .00003404  00000+0  17736-3 0  9996
2 59625  97.5019 240.1437 0010077  37.4650 322.7284 15.16625321116638
LEGION 2                
1 59626U 24081B   26162.25302026  .00002838  00000+0  14854-3 0  9995
2 59626  97.5019 240.2709 0011341   4.9228 355.2114 15.16604142116649
ALOS-4 (DAICHI-4)       
1 60182U 24123A   26162.27445356  .00001204  00000+0  16800-3 0  9996
2 60182  97.9242 259.5311 0001631  97.0648 263.0749 14.79474727105002
LEGION 3                
1 60452U 24146A   26162.20051663  .00003610  00000+0  19822-3 0  9998
2 60452  45.0019  62.6609 0007068 133.1975 226.9495 15.15994378101110
LEGION 4                
1 60453U 24146B   26162.26945628  .00002449  00000+0  13875-3 0  9999
2 60453  45.0002 154.2022 0014108 277.5481  82.3795 15.15987589 99971
SENTINEL-2C             
1 60989U 24157A   26162.22848682  .00000071  00000+0  43691-4 0  9992
2 60989  98.5691 237.0946 0001116  80.0282 280.1027 14.30816174 92132
IONOSFERA-M 1           
1 61735U 24199A   26162.21608567  .00000044  00000+0  39057-4 0  9994
2 61735  98.7181  35.4512 0001777 118.1943 241.9414 14.22753159126853
